OBJECT_NAME,OBJECT_ID,EPOCH,MEAN_MOTION,ECCENTRICITY,INCLINATION,RA_OF_ASC_NODE,ARG_OF_PERICENTER,MEAN_ANOMALY,EPHEMERIS_TYPE,CLASSIFICATION_TYPE,NORAD_CAT_ID,ELEMENT_SET_NO,REV_AT_EPOCH,BSTAR,MEAN_MOTION_DOT,MEAN_MOTION_DDOT
GSAT0225 (GALILEO 29),2024-079A,2026-07-12T22:10:02.693856,1.70473595,.00005761,55.1342,100.3610,333.1665,207.5558,0,U,59598,999,1375,0,-.32E-6,0
GSAT0227 (GALILEO 30),2024-079C,2026-07-13T23:39:34.866144,1.70473814,.00028453,55.1303,100.3294,67.2681,292.7822,0,U,59600,999,1382,0,-.3E-6,0
GSAT0232 (GALILEO 32),2024-167A,2026-07-14T06:36:41.942880,1.70474020,.00064875,55.1796,220.5702,231.1885,162.2574,0,U,61182,999,1134,0,.67E-6,0
GSAT0226 (GALILEO 31),2024-167B,2026-07-15T05:59:47.981760,1.70474010,.0003197,55.1780,220.5504,236.2594,126.5169,0,U,61183,999,1133,0,.58E-6,0
BEIDOU-3 M25 (C47),2024-168B,2026-07-14T22:29:07.062720,1.86229838,.0003308,54.4467,301.2775,291.6929,131.0149,0,U,61186,999,1230,0,-.69E-6,0
BEIDOU-3 M27 (C49),2024-168C,2026-07-15T04:37:09.700032,1.86229910,.0000901,54.4419,301.2513,47.6760,321.4230,0,U,61187,999,978,0,-.7E-6,0
GPS BIII-7  (PRN 01),2024-242A,2026-07-14T06:20:31.721856,2.00571876,.00178301,54.8366,333.0838,4.0205,356.7935,0,U,62339,999,1180,0,-.96E-6,0
QZS-6 (QZSS/PRN 200),2025-023A,2026-07-15T03:53:38.699808,1.00266976,.0001807,0.0097,2.0949,130.1122,309.6417,0,U,62876,999,523,0,-.241E-5,0
COSMOS 2584 (704K),2025-042A,2026-07-13T21:18:41.244768,2.13103784,.000546,65.0996,71.8945,213.8001,146.2394,0,U,63130,999,1061,0,-.1E-6,0
GPS BIII-8  (PRN 21),2025-116A,2026-07-15T00:09:31.116096,2.00573681,.0008402,55.2525,30.0116,339.3256,20.6541,0,U,64202,999,842,0,-.7E-6,0
COSMOS 2596 (708K),2025-206B,2026-07-13T08:02:05.138880,2.13100618,.00111267,64.6178,314.0753,307.7533,103.9433,0,U,65590,999,647,0,-.64E-6,0
GSAT0233 (GALILEO 33),2025-302A,2026-07-14T00:56:27.358656,1.70473741,.00008796,54.3495,101.3657,156.8538,279.4262,0,U,67160,999,358,0,-.31E-6,0
GSAT0234 (GALILEO 34),2025-302C,2026-07-14T12:15:19.860192,1.70473847,.00023025,54.3528,101.3514,321.0338,224.6861,0,U,67162,999,364,0,-.3E-6,0
GPS BIII-9  (PRN 20),2026-017A,2026-07-13T02:56:26.877120,2.00570504,.00215668,55.1047,87.7143,259.9513,99.8468,0,U,67588,999,43213,0,-.33E-6,0
GPS BIII-10 (PRN 13),2026-087A,2026-07-14T10:43:55.252128,2.00572517,.00204751,54.9618,206.7096,106.1812,335.7978,0,U,68791,999,138,0,.62E-6,0
